[{"OBJECT_NAME":"PRAETORIAN SDA_618","OBJECT_ID":"2025-203S","EPOCH":"2026-03-09T13:20:40.860672","MEAN_MOTION":13.8476252,"ECCENTRICITY":0.0011029,"INCLINATION":81.2991,"RA_OF_ASC_NODE":102.8568,"ARG_OF_PERICENTER":103.2416,"MEAN_ANOMALY":256.9972,"EPHEMERIS_TYPE":0,"CLASSIFICATION_TYPE":"U","NORAD_CAT_ID":65581,"ELEMENT_SET_NO":999,"REV_AT_EPOCH":2492,"BSTAR":0.00021051,"MEAN_MOTION_DOT":2.49e-6,"MEAN_MOTION_DDOT":0},{"OBJECT_NAME":"FENGYUN 1C DEB","OBJECT_ID":"1999-025AXE","EPOCH":"2026-03-09T03:32:02.864832","MEAN_MOTION":14.11171805,"ECCENTRICITY":0.01352826,"INCLINATION":98.2546,"RA_OF_ASC_NODE":304.328,"ARG_OF_PERICENTER":325.1894,"MEAN_ANOMALY":186.9608,"EPHEMERIS_TYPE":0,"CLASSIFICATION_TYPE":"U","NORAD_CAT_ID":30868,"ELEMENT_SET_NO":999,"REV_AT_EPOCH":97929,"BSTAR":0.00014086692,"MEAN_MOTION_DOT":2.37e-6,"MEAN_MOTION_DDOT":0}]
